{"type": "FeatureCollection", "features": [ {"type": "Feature", "properties": {"norad_id": 67026, "name": "STARLINK-36176", "group": "last-30-days", "lat": 14.62746955780395, "lon": -51.034346003558035, "alt_km": 290.51232128459924, "timestamp": "2025-12-19T16:54:42.970709+00:00", "meta": {"OBJECT_NAME": "STARLINK-36176", "OBJECT_ID": "2025-293Z", "EPOCH": "2025-12-19T06:00:02.000160", "MEAN_MOTION": 15.95631479, "ECCENTRICITY": 0.00039561, "INCLINATION": 69.9935, "RA_OF_ASC_NODE": 304.8349, "ARG_OF_PERICENTER": 271.0817, "MEAN_ANOMALY": 14.6765, "EPHEMERIS_TYPE": 0, "CLASSIFICATION_TYPE": "U", "NORAD_CAT_ID": 67026, "ELEMENT_SET_NO": 999, "REV_AT_EPOCH": 130, "BSTAR": -0.0029541061, "MEAN_MOTION_DOT": -0.01185699, "MEAN_MOTION_DDOT": 0.00042954137}, "tle": {"line1": "1 67026U 25293Z   25353.25002315 -.01185699  42954-3 -29541-2 0  9999", "line2": "2 67026  69.9935 304.8349 0003956 271.0817  14.6765 15.95631479  1307"}}, "geometry": {"type": "Point", "coordinates": [-51.034346003558035, 14.62746955780395]}}, {"type": "Feature", "properties": {"norad_id": 67027, "name": "STARLINK-36171", "group": "last-30-days", "lat": 12.74803250510656, "lon": -51.76022303298925, "alt_km": 290.8456712415209, "timestamp": "2025-12-19T16:54:42.970721+00:00", "meta": {"OBJECT_NAME": "STARLINK-36171", "OBJECT_ID": "2025-293AA", "EPOCH": "2025-12-19T06:00:02.000160", "MEAN_MOTION": 15.95574299, "ECCENTRICITY": 0.00039463, "INCLINATION": 69.9935, "RA_OF_ASC_NODE": 304.8373, "ARG_OF_PERICENTER": 271.5598, "MEAN_ANOMALY": 12.2833, "EPHEMERIS_TYPE": 0, "CLASSIFICATION_TYPE": "U", "NORAD_CAT_ID": 67027, "ELEMENT_SET_NO": 999, "REV_AT_EPOCH": 130, "BSTAR": -0.0029581185, "MEAN_MOTION_DOT": -0.01183678, "MEAN_MOTION_DDOT": 0.0004279368}, "tle": {"line1": "1 67027U 25293AA  25353.25002315 -.01183678  42794-3 -29581-2 0  9991", "line2": "2 67027  69.9935 304.8373 0003946 271.5598  12.2833 15.95574299  1301"}}, "geometry": {"type": "Point", "coordinates": [-51.76022303298925, 12.74803250510656]}}, {"type": "Feature", "properties": {"norad_id": 67028, "name": "STARLINK-36132", "group": "last-30-days", "lat": 19.127650196033898, "lon": -49.23717144004033, "alt_km": 289.65784611932395, "timestamp": "2025-12-19T16:54:42.970732+00:00", "meta": {"OBJECT_NAME": "STARLINK-36132", "OBJECT_ID": "2025-293AB", "EPOCH": "2025-12-19T06:00:02.000160", "MEAN_MOTION": 15.95771544, "ECCENTRICITY": 0.0003959, "INCLINATION": 69.9937, "RA_OF_ASC_NODE": 304.8294, "ARG_OF_PERICENTER": 270.6835, "MEAN_ANOMALY": 19.6688, "EPHEMERIS_TYPE": 0, "CLASSIFICATION_TYPE": "U", "NORAD_CAT_ID": 67028, "ELEMENT_SET_NO": 999, "REV_AT_EPOCH": 130, "BSTAR": -0.0029546132, "MEAN_MOTION_DOT": -0.01194794, "MEAN_MOTION_DDOT": 0.00043627514}, "tle": {"line1": "1 67028U 25293AB  25353.25002315 -.01194794  43628-3 -29546-2 0  9991", "line2": "2 67028  69.9937 304.8294 0003959 270.6835  19.6688 15.95771544  1305"}}, "geometry": {"type": "Point", "coordinates": [-49.23717144004033, 19.127650196033898]}}, {"type": "Feature", "properties": {"norad_id": 67029, "name": "STARLINK-36190", "group": "last-30-days", "lat": 16.620973855451645, "lon": -50.24938660320808, "alt_km": 290.1842858879363, "timestamp": "2025-12-19T16:54:42.970742+00:00", "meta": {"OBJECT_NAME": "STARLINK-36190", "OBJECT_ID": "2025-293AC", "EPOCH": "2025-12-19T06:00:02.000160", "MEAN_MOTION": 15.95693557, "ECCENTRICITY": 0.00039615, "INCLINATION": 69.9939, "RA_OF_ASC_NODE": 304.8327, "ARG_OF_PERICENTER": 269.8675, "MEAN_ANOMALY": 17.9238, "EPHEMERIS_TYPE": 0, "CLASSIFICATION_TYPE": "U", "NORAD_CAT_ID": 67029, "ELEMENT_SET_NO": 999, "REV_AT_EPOCH": 130, "BSTAR": -0.0029538321, "MEAN_MOTION_DOT": -0.01189522, "MEAN_MOTION_DDOT": 0.00043237923}, "tle": {"line1": "1 67029U 25293AC  25353.25002315 -.01189522  43238-3 -29538-2 0  9993", "line2": "2 67029  69.9939 304.8327 0003961 269.8675  17.9238 15.95693557  1309"}}, "geometry": {"type": "Point", "coordinates": [-50.24938660320808, 16.620973855451645]}}, {"type": "Feature", "properties": {"norad_id": 67030, "name": "STARLINK-36138", "group": "last-30-days", "lat": -12.977473267956379, "lon": 125.35442189467393, "alt_km": 303.3190399754676, "timestamp": "2025-12-19T16:54:42.970752+00:00", "meta": {"OBJECT_NAME": "STARLINK-36138", "OBJECT_ID": "2025-294A", "EPOCH": "2025-12-19T06:00:02.000160", "MEAN_MOTION": 15.91170661, "ECCENTRICITY": 0.00016252, "INCLINATION": 42.9996, "RA_OF_ASC_NODE": 142.4962, "ARG_OF_PERICENTER": 255.8458, "MEAN_ANOMALY": 358.4318, "EPHEMERIS_TYPE": 0, "CLASSIFICATION_TYPE": "U", "NORAD_CAT_ID": 67030, "ELEMENT_SET_NO": 999, "REV_AT_EPOCH": 130, "BSTAR": -0.0039766342, "MEAN_MOTION_DOT": -0.0130826, "MEAN_MOTION_DDOT": 0.00048994299}, "tle": {"line1": "1 67030U 25294A   25353.25002315 -.01308260  48994-3 -39766-2 0  9996", "line2": "2 67030  42.9996 142.4962 0001625 255.8458 358.4318 15.91170661  1309"}}, "geometry": {"type": "Point", "coordinates": [125.35442189467393, -12.977473267956379]}}, {"type": "Feature", "properties": {"norad_id": 67031, "name": "STARLINK-36150", "group": "last-30-days", "lat": -12.012962412461738, "lon": 126.46918754357623, "alt_km": 302.9632511232712, "timestamp": "2025-12-19T16:54:42.970764+00:00", "meta": {"OBJECT_NAME": "STARLINK-36150", "OBJECT_ID": "2025-294B", "EPOCH": "2025-12-19T06:00:02.000160", "MEAN_MOTION": 15.9121918, "ECCENTRICITY": 0.00016825, "INCLINATION": 42.9998, "RA_OF_ASC_NODE": 142.493, "ARG_OF_PERICENTER": 261.9326, "MEAN_ANOMALY": 353.7246, "EPHEMERIS_TYPE": 0, "CLASSIFICATION_TYPE": "U", "NORAD_CAT_ID": 67031, "ELEMENT_SET_NO": 999, "REV_AT_EPOCH": 135, "BSTAR": -0.003976098, "MEAN_MOTION_DOT": -0.01311338, "MEAN_MOTION_DDOT": 0.00049228311}, "tle": {"line1": "1 67031U 25294B   25353.25002315 -.01311338  49228-3 -39761-2 0  9993", "line2": "2 67031  42.9998 142.4930 0001682 261.9326 353.7246 15.91219180  1355"}}, "geometry": {"type": "Point", "coordinates": [126.46918754357623, -12.012962412461738]}}, {"type": "Feature", "properties": {"norad_id": 67032, "name": "STARLINK-36131", "group": "last-30-days", "lat": -9.504919183512383, "lon": 129.30852905858862, "alt_km": 302.6814102266262, "timestamp": "2025-12-19T16:54:42.970774+00:00", "meta": {"OBJECT_NAME": "STARLINK-36131", "OBJECT_ID": "2025-294C", "EPOCH": "2025-12-19T06:00:02.000160", "MEAN_MOTION": 15.91346302, "ECCENTRICITY": 0.0001613, "INCLINATION": 42.9997, "RA_OF_ASC_NODE": 142.4834, "ARG_OF_PERICENTER": 252.6967, "MEAN_ANOMALY": 6.5177, "EPHEMERIS_TYPE": 0, "CLASSIFICATION_TYPE": "U", "NORAD_CAT_ID": 67032, "ELEMENT_SET_NO": 999, "REV_AT_EPOCH": 130, "BSTAR": -0.0039755598, "MEAN_MOTION_DOT": -0.0131969, "MEAN_MOTION_DDOT": 0.00049864537}, "tle": {"line1": "1 67032U 25294C   25353.25002315 -.01319690  49865-3 -39756-2 0  9994", "line2": "2 67032  42.9997 142.4834 0001613 252.6967   6.5177 15.91346302  1308"}}, "geometry": {"type": "Point", "coordinates": [129.30852905858862, -9.504919183512383]}}, {"type": "Feature", "properties": {"norad_id": 67033, "name": "STARLINK-36137", "group": "last-30-days", "lat": -10.777562817896149, "lon": 127.87745866947152, "alt_km": 302.86674679469706, "timestamp": "2025-12-19T16:54:42.970785+00:00", "meta": {"OBJECT_NAME": "STARLINK-36137", "OBJECT_ID": "2025-294D", "EPOCH": "2025-12-19T06:00:02.000160", "MEAN_MOTION": 15.91280504, "ECCENTRICITY": 0.00019457, "INCLINATION": 42.9996, "RA_OF_ASC_NODE": 142.4884, "ARG_OF_PERICENTER": 255.3206, "MEAN_ANOMALY": 2.0913, "EPHEMERIS_TYPE": 0, "CLASSIFICATION_TYPE": "U", "NORAD_CAT_ID": 67033, "ELEMENT_SET_NO": 999, "REV_AT_EPOCH": 130, "BSTAR": -0.0039728988, "MEAN_MOTION_DOT": -0.01314463, "MEAN_MOTION_DDOT": 0.00049472312}, "tle": {"line1": "1 67033U 25294D   25353.25002315 -.01314463  49472-3 -39729-2 0  9992", "line2": "2 67033  42.9996 142.4884 0001945 255.3206   2.0913 15.91280504  1307"}}, "geometry": {"type": "Point", "coordinates": [127.87745866947152, -10.777562817896149]}}, {"type": "Feature", "properties": {"norad_id": 67034, "name": "STARLINK-36140", "group": "last-30-days", "lat": -8.100489923926364, "lon": 130.86890167812425, "alt_km": 302.327817633869, "timestamp": "2025-12-19T16:54:42.970795+00:00", "meta": {"OBJECT_NAME": "STARLINK-36140", "OBJECT_ID": "2025-294E", "EPOCH": "2025-12-19T06:00:02.000160", "MEAN_MOTION": 15.9141569, "ECCENTRICITY": 0.00016911, "INCLINATION": 42.9997, "RA_OF_ASC_NODE": 142.4788, "ARG_OF_PERICENTER": 255.2608, "MEAN_ANOMALY": 5.9332, "EPHEMERIS_TYPE": 0, "CLASSIFICATION_TYPE": "U", "NORAD_CAT_ID": 67034, "ELEMENT_SET_NO": 999, "REV_AT_EPOCH": 130, "BSTAR": -0.0039810053, "MEAN_MOTION_DOT": -0.0132619, "MEAN_MOTION_DDOT": 0.00050348544}, "tle": {"line1": "1 67034U 25294E   25353.25002315 -.01326190  50349-3 -39810-2 0  9999", "line2": "2 67034  42.9997 142.4788 0001691 255.2608   5.9332 15.91415690  1308"}}, "geometry": {"type": "Point", "coordinates": [130.86890167812425, -8.100489923926364]}}, {"type": "Feature", "properties": {"norad_id": 67035, "name": "STARLINK-36085", "group": "last-30-days", "lat": -5.2285136492132605, "lon": 134.0081679208757, "alt_km": 301.647354198466, "timestamp": "2025-12-19T16:54:42.970807+00:00", "meta": {"OBJECT_NAME": "STARLINK-36085", "OBJECT_ID": "2025-294F", "EPOCH": "2025-12-19T06:00:02.000160", "MEAN_MOTION": 15.91556033, "ECCENTRICITY": 0.00016649, "INCLINATION": 42.9998, "RA_OF_ASC_NODE": 142.4684, "ARG_OF_PERICENTER": 258.3547, "MEAN_ANOMALY": 6.8658, "EPHEMERIS_TYPE": 0, "CLASSIFICATION_TYPE": "U", "NORAD_CAT_ID": 67035, "ELEMENT_SET_NO": 999, "REV_AT_EPOCH": 130, "BSTAR": -0.003989596, "MEAN_MOTION_DOT": -0.01338596, "MEAN_MOTION_DDOT": 0.00051283223}, "tle": {"line1": "1 67035U 25294F   25353.25002315 -.01338596  51283-3 -39896-2 0  9995", "line2": "2 67035  42.9998 142.4684 0001664 258.3547   6.8658 15.91556033  1309"}}, "geometry": {"type": "Point", "coordinates": [134.0081679208757, -5.2285136492132605]}}]}